[{"OBJECT_NAME":"STARLINK-30947","OBJECT_ID":"2023-186A","EPOCH":"2024-01-08T14:20:14.923680","MEAN_MOTION":15.25921305,"ECCENTRICITY":9.93e-5,"INCLINATION":43.0006,"RA_OF_ASC_NODE":54.2968,"ARG_OF_PERICENTER":260.9173,"MEAN_ANOMALY":99.1566,"EPHEMERIS_TYPE":0,"CLASSIFICATION_TYPE":"U","NORAD_CAT_ID":58473,"ELEMENT_SET_NO":999,"REV_AT_EPOCH":675,"BSTAR":0.0003303,"MEAN_MOTION_DOT":8.395e-5,"MEAN_MOTION_DDOT":0},{"OBJECT_NAME":"STARLINK-30995","OBJECT_ID":"2023-186B","EPOCH":"2024-01-08T14:16:59.650176","MEAN_MOTION":15.25907864,"ECCENTRICITY":0.0001138,"INCLINATION":42.9994,"RA_OF_ASC_NODE":54.2806,"ARG_OF_PERICENTER":254.7603,"MEAN_ANOMALY":105.3122,"EPHEMERIS_TYPE":0,"CLASSIFICATION_TYPE":"U","NORAD_CAT_ID":58474,"ELEMENT_SET_NO":999,"REV_AT_EPOCH":688,"BSTAR":6.5202e-5,"MEAN_MOTION_DOT":1.448e-5,"MEAN_MOTION_DDOT":0},{"OBJECT_NAME":"STARLINK-30941","OBJECT_ID":"2023-186C","EPOCH":"2024-01-09T04:22:04.172736","MEAN_MOTION":15.25932164,"ECCENTRICITY":8.99e-5,"INCLINATION":43.0007,"RA_OF_ASC_NODE":50.943,"ARG_OF_PERICENTER":266.9971,"MEAN_ANOMALY":93.0777,"EPHEMERIS_TYPE":0,"CLASSIFICATION_TYPE":"U","NORAD_CAT_ID":58475,"ELEMENT_SET_NO":999,"REV_AT_EPOCH":675,"BSTAR":0.0013608,"MEAN_MOTION_DOT":0.00035534,"MEAN_MOTION_DDOT":0},{"OBJECT_NAME":"STARLINK-30980","OBJECT_ID":"2023-186D","EPOCH":"2024-01-09T02:44:33.264960","MEAN_MOTION":15.25906061,"ECCENTRICITY":0.0001486,"INCLINATION":43.0004,"RA_OF_ASC_NODE":51.2948,"ARG_OF_PERICENTER":262.1622,"MEAN_ANOMALY":97.906,"EPHEMERIS_TYPE":0,"CLASSIFICATION_TYPE":"U","NORAD_CAT_ID":58476,"ELEMENT_SET_NO":999,"REV_AT_EPOCH":678,"BSTAR":0.00069254,"MEAN_MOTION_DOT":0.000179,"MEAN_MOTION_DDOT":0},{"OBJECT_NAME":"STARLINK-30965","OBJECT_ID":"2023-186E","EPOCH":"2024-01-09T03:17:17.860992","MEAN_MOTION":15.41973525,"ECCENTRICITY":7.25e-5,"INCLINATION":43,"RA_OF_ASC_NODE":45.3095,"ARG_OF_PERICENTER":344.8847,"MEAN_ANOMALY":15.1988,"EPHEMERIS_TYPE":0,"CLASSIFICATION_TYPE":"U","NORAD_CAT_ID":58477,"ELEMENT_SET_NO":999,"REV_AT_EPOCH":685,"BSTAR":0.00073089,"MEAN_MOTION_DOT":0.00031679,"MEAN_MOTION_DDOT":0},{"OBJECT_NAME":"STARLINK-30990","OBJECT_ID":"2023-186F","EPOCH":"2024-01-09T04:15:34.794720","MEAN_MOTION":15.25932711,"ECCENTRICITY":0.0001745,"INCLINATION":43.0011,"RA_OF_ASC_NODE":50.9082,"ARG_OF_PERICENTER":281.9463,"MEAN_ANOMALY":78.1193,"EPHEMERIS_TYPE":0,"CLASSIFICATION_TYPE":"U","NORAD_CAT_ID":58478,"ELEMENT_SET_NO":999,"REV_AT_EPOCH":690,"BSTAR":0.0022986,"MEAN_MOTION_DOT":0.00060406,"MEAN_MOTION_DDOT":0},{"OBJECT_NAME":"STARLINK-30974","OBJECT_ID":"2023-186G","EPOCH":"2024-01-08T22:00:00.999936","MEAN_MOTION":15.93081429,"ECCENTRICITY":0.0002338,"INCLINATION":42.9966,"RA_OF_ASC_NODE":40.342,"ARG_OF_PERICENTER":279.0972,"MEAN_ANOMALY":278.8824,"EPHEMERIS_TYPE":0,"CLASSIFICATION_TYPE":"U","NORAD_CAT_ID":58479,"ELEMENT_SET_NO":999,"REV_AT_EPOCH":708,"BSTAR":-0.00041082,"MEAN_MOTION_DOT":-0.00152529,"MEAN_MOTION_DDOT":1.6016e-5},{"OBJECT_NAME":"STARLINK-30984","OBJECT_ID":"2023-186H","EPOCH":"2024-01-09T03:29:59.663616","MEAN_MOTION":15.25871347,"ECCENTRICITY":0.000141,"INCLINATION":43.0001,"RA_OF_ASC_NODE":50.6587,"ARG_OF_PERICENTER":287.4798,"MEAN_ANOMALY":72.5898,"EPHEMERIS_TYPE":0,"CLASSIFICATION_TYPE":"U","NORAD_CAT_ID":58480,"ELEMENT_SET_NO":999,"REV_AT_EPOCH":680,"BSTAR":0.00042672,"MEAN_MOTION_DOT":0.00010908,"MEAN_MOTION_DDOT":0},{"OBJECT_NAME":"STARLINK-30956","OBJECT_ID":"2023-186J","EPOCH":"2024-01-09T02:44:59.823456","MEAN_MOTION":15.71408542,"ECCENTRICITY":5.85e-5,"INCLINATION":42.9987,"RA_OF_ASC_NODE":44.2648,"ARG_OF_PERICENTER":70.4642,"MEAN_ANOMALY":289.6289,"EPHEMERIS_TYPE":0,"CLASSIFICATION_TYPE":"U","NORAD_CAT_ID":58481,"ELEMENT_SET_NO":999,"REV_AT_EPOCH":686,"BSTAR":0.00034329,"MEAN_MOTION_DOT":0.00044907,"MEAN_MOTION_DDOT":0},{"OBJECT_NAME":"STARLINK-30997","OBJECT_ID":"2023-186K","EPOCH":"2024-01-09T06:00:00.999648","MEAN_MOTION":15.25931895,"ECCENTRICITY":0.0001855,"INCLINATION":42.9999,"RA_OF_ASC_NODE":48.0999,"ARG_OF_PERICENTER":253.9674,"MEAN_ANOMALY":60.2315,"EPHEMERIS_TYPE":0,"CLASSIFICATION_TYPE":"U","NORAD_CAT_ID":58482,"ELEMENT_SET_NO":999,"REV_AT_EPOCH":683,"BSTAR":-0.0023432,"MEAN_MOTION_DOT":-0.00061088,"MEAN_MOTION_DDOT":0},{"OBJECT_NAME":"STARLINK-30994","OBJECT_ID":"2023-186L","EPOCH":"2024-01-05T05:43:53.628096","MEAN_MOTION":15.59337152,"ECCENTRICITY":0.0001478,"INCLINATION":43.0019,"RA_OF_ASC_NODE":69.4476,"ARG_OF_PERICENTER":318.3432,"MEAN_ANOMALY":41.7319,"EPHEMERIS_TYPE":0,"CLASSIFICATION_TYPE":"U","NORAD_CAT_ID":58483,"ELEMENT_SET_NO":999,"REV_AT_EPOCH":627,"BSTAR":0.00018109,"MEAN_MOTION_DOT":0.00014311,"MEAN_MOTION_DDOT":0},{"OBJECT_NAME":"STARLINK-30991","OBJECT_ID":"2023-186M","EPOCH":"2024-01-09T03:26:32.305344","MEAN_MOTION":15.26107995,"ECCENTRICITY":1.02e-5,"INCLINATION":42.9997,"RA_OF_ASC_NODE":50.6416,"ARG_OF_PERICENTER":59.2554,"MEAN_ANOMALY":300.8308,"EPHEMERIS_TYPE":0,"CLASSIFICATION_TYPE":"U","NORAD_CAT_ID":58484,"ELEMENT_SET_NO":999,"REV_AT_EPOCH":679,"BSTAR":0.0018014,"MEAN_MOTION_DOT":0.00047452,"MEAN_MOTION_DDOT":0},{"OBJECT_NAME":"STARLINK-30979","OBJECT_ID":"2023-186N","EPOCH":"2024-01-09T04:09:02.479104","MEAN_MOTION":15.25914579,"ECCENTRICITY":0.000157,"INCLINATION":43.0009,"RA_OF_ASC_NODE":50.8704,"ARG_OF_PERICENTER":260.468,"MEAN_ANOMALY":99.5993,"EPHEMERIS_TYPE":0,"CLASSIFICATION_TYPE":"U","NORAD_CAT_ID":58485,"ELEMENT_SET_NO":999,"REV_AT_EPOCH":679,"BSTAR":6.3105e-5,"MEAN_MOTION_DOT":1.394e-5,"MEAN_MOTION_DDOT":0},{"OBJECT_NAME":"STARLINK-31005","OBJECT_ID":"2023-186P","EPOCH":"2024-01-09T04:05:46.938624","MEAN_MOTION":15.25948423,"ECCENTRICITY":0.0001121,"INCLINATION":43.0011,"RA_OF_ASC_NODE":50.8534,"ARG_OF_PERICENTER":260.336,"MEAN_ANOMALY":99.7364,"EPHEMERIS_TYPE":0,"CLASSIFICATION_TYPE":"U","NORAD_CAT_ID":58486,"ELEMENT_SET_NO":999,"REV_AT_EPOCH":679,"BSTAR":0.001938,"MEAN_MOTION_DOT":0.00050847,"MEAN_MOTION_DDOT":0}]
