STARLINK-30947          
1 58473U 23186A   24008.59739495  .00008395  00000+0  33030-3 0  9998
2 58473  43.0006  54.2968 0000993 260.9173  99.1566 15.25921305  6752
STARLINK-30995          
1 58474U 23186B   24008.59513484  .00001448  00000+0  65202-4 0  9996
2 58474  42.9994  54.2806 0001138 254.7603 105.3122 15.25907864  6885
STARLINK-30941          
1 58475U 23186C   24009.18199274  .00035534  00000+0  13608-2 0  9994
2 58475  43.0007  50.9430 0000899 266.9971  93.0777 15.25932164  6751
STARLINK-30980          
1 58476U 23186D   24009.11427390  .00017900  00000+0  69254-3 0  9997
2 58476  43.0004  51.2948 0001486 262.1622  97.9060 15.25906061  6789
STARLINK-30965          
1 58477U 23186E   24009.13701228  .00031679  00000+0  73089-3 0  9995
2 58477  43.0000  45.3095 0000725 344.8847  15.1988 15.41973525  6851
STARLINK-30990          
1 58478U 23186F   24009.17748605  .00060406  00000+0  22986-2 0  9999
2 58478  43.0011  50.9082 0001745 281.9463  78.1193 15.25932711  6907
STARLINK-30974          
1 58479U 23186G   24008.91667824 -.00152529  16016-4 -41082-3 0  9992
2 58479  42.9966  40.3420 0002338 279.0972 278.8824 15.93081429  7082
STARLINK-30984          
1 58480U 23186H   24009.14582944  .00010908  00000+0  42672-3 0  9998
2 58480  43.0001  50.6587 0001410 287.4798  72.5898 15.25871347  6803
STARLINK-30956          
1 58481U 23186J   24009.11458129  .00044907  00000+0  34329-3 0  9999
2 58481  42.9987  44.2648 0000585  70.4642 289.6289 15.71408542  6867
STARLINK-30997          
1 58482U 23186K   24009.25001157 -.00061088  00000+0 -23432-2 0  9993
2 58482  42.9999  48.0999 0001855 253.9674  60.2315 15.25931895  6837
STARLINK-30994          
1 58483U 23186L   24005.23881514  .00014311  00000+0  18109-3 0  9992
2 58483  43.0019  69.4476 0001478 318.3432  41.7319 15.59337152  6278
STARLINK-30991          
1 58484U 23186M   24009.14342946  .00047452  00000+0  18014-2 0  9994
2 58484  42.9997  50.6416 0000102  59.2554 300.8308 15.26107995  6795
STARLINK-30979          
1 58485U 23186N   24009.17294536  .00001394  00000+0  63105-4 0  9997
2 58485  43.0009  50.8704 0001570 260.4680  99.5993 15.25914579  6795
STARLINK-31005          
1 58486U 23186P   24009.17068216  .00050847  00000+0  19380-2 0  9993
2 58486  43.0011  50.8534 0001121 260.3360  99.7364 15.25948423  6795
